OSCAR 7 (AO-7)          
1 07530U 74089B   24218.55534432 -.00000026  00000+0  13016-3 0  9993
2 07530 101.9807 213.6696 0012212 352.1724 123.6628 12.53677656275468
PHASE 3B (AO-10)        
1 14129U 83058B   24217.46720250 -.00000235  00000+0  00000+0 0  9992
2 14129  27.4083 331.4452 6032739 290.1295  17.0883  2.05870207281440
UOSAT 2 (UO-11)         
1 14781U 84021B   24217.88047398  .00004126  00000+0  46660-3 0  9996
2 14781  97.7082 185.7069 0006313 277.8893  82.1607 14.86987014155721
LUSAT (LO-19)           
1 20442U 90005G   24217.94097596  .00000592  00000+0  23048-3 0  9996
2 20442  98.8851 209.4969 0012505  47.0035 313.2194 14.33592316804769
EYESAT A (AO-27)        
1 22825U 93061C   24217.72932780  .00000295  00000+0  13061-3 0  9991
2 22825  98.7854 271.0038 0007395 300.7986  59.2467 14.30535031609553
ITAMSAT (IO-26)         
1 22826U 93061D   24217.76480385  .00000337  00000+0  14544-3 0  9999
2 22826  98.7803 270.9050 0007809 283.2673  76.7638 14.30920472609841
RADIO ROSTO (RS-15)     
1 23439U 94085A   24217.71585257 -.00000031  00000+0  33595-3 0  9995
2 23439  64.8207 325.2898 0148949 134.6245 226.6939 11.27577820219062
JAS-2 (FO-29)           
1 24278U 96046B   24217.77179320  .00000037  00000+0  71654-4 0  9996
2 24278  98.5795 146.0558 0351087  62.4867 301.1494 13.53195870381000
TECHSAT 1B (GO-32)      
1 25397U 98043D   24217.85783550  .00000338  00000+0  16719-3 0  9997
2 25397  98.9253 185.3169 0001998  50.7077 309.4278 14.24081431354340
ISS (ZARYA)             
1 25544U 98067A   24218.67416422  .00017504  00000+0  31758-3 0  9992
2 25544  51.6401  70.1637 0006091 164.8983 298.7961 15.49662519466228
PCSAT (NO-44)           
1 26931U 01043C   24218.19159090  .00000537  00000+0  23390-3 0  9994
2 26931  67.0492 204.9464 0007781 273.6526  86.3685 14.31295656193128
SAUDISAT 1C (SO-50)     
1 27607U 02058C   24217.94783643  .00004192  00000+0  57758-3 0  9997
2 27607  64.5547  71.6426 0025477  86.1981 274.2036 14.79267406163537
CUTE-1 (CO-55)          
1 27844U 03031E   24218.01828619  .00001105  00000+0  50650-3 0  9999
2 27844  98.6779 224.3696 0009893  11.0242 349.1152 14.23350719 94760
CUBESAT XI-IV (CO-57)   
1 27848U 03031J   24217.97182443  .00000939  00000+0  43813-3 0  9992
2 27848  98.6810 224.5408 0010141  26.5974 333.5722 14.22779461 94526
MOZHAYETS 4 (RS-22)     
1 27939U 03042A   24218.56185514  .00002900  00000+0  48951-3 0  9991
2 27939  98.2964  15.5636 0010796 263.4334 172.2880 14.70199664115534
CUBESAT XI-V            
1 28895U 05043F   24217.91148202  .00006114  00000+0  10723-2 0  9993
2 28895  98.2081 353.8325 0015274 199.6762 160.3855 14.68033086  1604
CUTE-1.7+APD II (CO-65) 
1 32785U 08021C   24218.20938783  .00008811  00000+0  76058-3 0  9999
2 32785  97.7586 183.1581 0011760 152.2475 207.9376 14.97439322882889
SEEDS II (CO-66)        
1 32791U 08021J   24217.88756740  .00026801  00000+0  18847-2 0  9990
2 32791  97.6916 188.8300 0007131 130.2635 229.9216 15.05031087883923
YUBILEINY (RS-30)       
1 32953U 08025A   24218.48673866  .00000045  00000+0  25077-3 0  9994
2 32953  82.4998  58.8160 0019603   0.1657 359.9426 12.43144725735253
KKS-1 (KISEKI)          
1 33499U 09002H   24218.20145776  .00003894  00000+0  53334-3 0  9992
2 33499  98.1337 120.3927 0007914 343.6351  16.4603 14.79053569835792
SWISSCUBE               
1 35932U 09051B   24218.19211332  .00002836  00000+0  61011-3 0  9996
2 35932  98.4643 102.4750 0007597 156.6460 203.5086 14.59297216789748
BEESAT-1                
1 35933U 09051C   24217.65773114  .00002042  00000+0  44528-3 0  9991
2 35933  98.4573 102.7753 0005569 167.6412 192.4924 14.58998053789690
ITUPSAT1                
1 35935U 09051E   24218.18770509  .00002193  00000+0  48821-3 0  9994
2 35935  98.4668 103.0732 0007706 176.5796 183.5457 14.57941425789431
XIWANG-1 (HOPE-1)       
1 36122U 09072B   24218.51204727 -.00000013  00000+0  80419-4 0  9997
2 36122 100.2971 175.4980 0007503 356.3077   3.7980 13.16404698703544
O/OREOS (USA 219)       
1 37224U 10062C   24217.96106362  .00008546  00000+0  94018-3 0  9993
2 37224  71.9720 177.6302 0017797 280.0558  79.8601 14.87691628 15088
JUGNU                   
1 37839U 11058B   24218.12962500  .00000849  00000+0  30616-3 0  9996
2 37839  19.9601 124.8172 0018845 116.9331  27.3621 14.13259909662652
SRMSAT                  
1 37841U 11058D   24217.71521293  .00000624  00000+0  19666-3 0  9996
2 37841  19.9705 223.2663 0011583 268.1362 248.9272 14.11154291661428
STRAND-1                
1 39090U 13009E   24217.55993369  .00000811  00000+0  29260-3 0  9990
2 39090  98.3817  44.5161 0010040 106.2128 254.0163 14.36155557599180
ZACUBE-1 (TSHEPISOSAT)  
1 39417U 13066B   24218.15784864  .00014971  00000+0  15221-2 0  9994
2 39417  97.7366 173.0537 0049799   1.1039 359.0279 14.89946152578871
GOMX-1                  
1 39430U 13066Q   24218.52230893  .00004557  00000+0  75119-3 0  9990
2 39430  97.7255  89.9137 0140917  95.8830 265.8456 14.64498315570269
CUBEBUG-2 (LO-74)       
1 39440U 13066AA  24217.80410939  .00007912  00000+0  91737-3 0  9994
2 39440  97.8142 160.4443 0071008 114.5697 246.2939 14.83876847575541
FUNCUBE-1 (AO-73)       
1 39444U 13066AE  24217.88543398  .00022243  00000+0  20941-2 0  9994
2 39444  97.7214 176.0417 0046219 341.6231  18.3317 14.93035567577379
UWE-3                   
1 39446U 13066AG  24217.85617711  .00014224  00000+0  15505-2 0  9994
2 39446  97.7826 166.5764 0061446  60.6670 300.0665 14.86676845575932
SPROUT                  
1 39770U 14029E   24218.49098783  .01284889  70714-3  52280-2 0  9998
2 39770  97.9965  17.4200 0016231 288.9382  71.0127 15.86103189555342
UNISAT-6                
1 40012U 14033C   24218.35565212  .00007596  00000+0  97695-3 0  9999
2 40012  97.7081  18.8023 0053003 143.9155 216.5654 14.80402179545113
DUCHIFAT-1              
1 40021U 14033M   24218.46108751  .00021366  00000+0  13559-2 0  9999
2 40021  98.0916 204.8848 0010019 295.9498  64.0696 15.08875047551550
QB50P1                  
1 40025U 14033R   24218.44192652  .00013660  00000+0  10808-2 0  9996
2 40025  98.0440 180.8423 0014739  13.8910 346.2715 15.00662488550772
KAITUO 1A               
1 40904U 15049F   24218.47877305  .00070994  00000+0  11144-2 0  9995
2 40904  97.4809 237.1296 0009419 133.2054 226.9988 15.53381244492080
XW-2C                   
1 40906U 15049H   24218.49812887  .00041214  00000+0  83815-3 0  9991
2 40906  97.4755 236.7092 0010204 121.6849 238.5396 15.46130446492088
XW-2D                   
1 40907U 15049J   24218.50419770  .00072123  00000+0  10323-2 0  9994
2 40907  97.4688 239.8395 0009138 115.7127 244.5072 15.55915697492358
LILACSAT-2              
1 40908U 15049K   24218.54136578  .00013091  00000+0  48827-3 0  9991
2 40908  97.5234 227.6436 0012781 167.1076 193.0492 15.27475090491024
XW-2B                   
1 40911U 15049N   24218.49394517  .00068971  00000+0  10254-2 0  9997
2 40911  97.4667 239.8403 0009018 118.2573 241.9592 15.54892141492210
LAPAN-A2                
1 40931U 15052B   24218.20807205  .00001792  00000+0  15482-3 0  9992
2 40931   6.0016   2.4252 0012339  55.4573 304.6718 14.77971307478839
FOX-1A (AO-85)          
1 40967U 15058D   24218.50520113  .00007448  00000+0  68155-3 0  9999
2 40967  64.7756 224.2321 0191664 289.1138  68.9304 14.82671980 12300
CAS-2T & KS-1Q          
1 41847U 16066G   24218.24711214  .00002542  00000+0  37637-3 0  9993
2 41847  98.4585 289.1806 0353603  29.7953 332.2865 14.41544699406561
ZHUHAI-1 02 (CAS-4B)    
1 42759U 17034B   24218.55763234  .00024006  00000+0  80842-3 0  9990
2 42759  43.0181 307.1345 0013010 314.2000  45.7783 15.30239366394967
ZHUHAI-1 01 (CAS-4A)    
1 42761U 17034D   24218.55526885  .00023699  00000+0  79555-3 0  9998
2 42761  43.0220 305.4651 0012008 324.9629  35.0433 15.30360264394973
RADFXSAT (FOX-1B)       
1 43017U 17073E   24217.61788731  .00014294  00000+0  86215-3 0  9994
2 43017  97.5719  91.4119 0208916 131.3309 230.6100 14.94338290362899
DIWATA-2B               
1 43678U 18084H   24218.52148945  .00003744  00000+0  34294-3 0  9996
2 43678  98.0767  17.9756 0008169 220.7382 139.3228 14.95561809314295
ES'HAIL 2               
1 43700U 18090A   24217.93105128  .00000135  00000+0  00000+0 0  9994
2 43700   0.0181  93.3101 0002506  84.4896 137.1388  1.00274278 20841
FOX-1CLIFF (AO-95)      
1 43770U 18099N   24218.13155278  .00021617  00000+0  14500-2 0  9995
2 43770  97.5418 274.9547 0013677 189.3042 170.7934 15.06782344309931
ITASAT                  
1 43786U 18099AE  24218.13897540  .00014945  00000+0  10511-2 0  9991
2 43786  97.5070 274.0379 0017374 179.4315 180.6935 15.05050013309938
JY1SAT (JO-97)          
1 43803U 18099AX  24218.13945862  .00022823  00000+0  14617-2 0  9997
2 43803  97.5167 275.7473 0011202 131.7901 228.4286 15.08504169310070
UWE-4                   
1 43880U 18111E   24218.22970795  .00018625  00000+0  11203-2 0  9993
2 43880  97.6063 123.6245 0015842 192.9190 167.1636 15.10790206304839
DUCHIFAT-3              
1 44854U 19089C   24218.08491843  .00040413  00000+0  19222-2 0  9995
2 44854  36.9564 111.7329 0003770 169.5418 190.5408 15.18277869255637
TIANYAN 01              
1 44881U 19093C   24218.46995762  .00002232  00000+0  27441-3 0  9991
2 44881  97.8266 294.3034 0014960 156.6488 203.5409 14.83936075250352
RS-44 & BREEZE-KM R/B   
1 44909U 19096E   24217.89634280  .00000037  00000+0  11217-3 0  9991
2 44909  82.5183  72.4067 0216555 297.4919  60.4317 12.79732450215207
BY70-2                  
1 45857U 20042B   24218.52927463  .00547363  00000+0  68751-2 0  9998
2 45857  97.8980 316.1338 0009177 279.1582  80.8633 15.57825131222153
